NORAD_CAT_ID,OBJECT_NAME,OBJECT_TYPE,EPOCH,MEAN_MOTION,ECCENTRICITY,INCLINATION,RA_OF_ASC_NODE,ARG_OF_PERICENTER,MEAN_ANOMALY,BSTAR,MEAN_MOTION_DOT,MEAN_MOTION_DDOT,TLE_LINE0,TLE_LINE1,TLE_LINE2,SEMIMAJOR_AXIS,PERIOD,APOGEE,PERIGEE,DECAYED
54164.0,STARLINK-5278,PAYLOAD,2024-06-26 11:36:20,15.08848983,0.000114,53.2171,273.0342,82.0324,278.0797,6.1051e-06,-1.91e-06,0.0,0 STARLINK-5278,1 54164U 22141H   24178.48357201 -.00000191  00000-0  61051-5 0  9992,2 54164  53.2171 273.0342 0001140  82.0324 278.0797 15.08848983 92079,6917.853,95.437,540.507,538.929,0.0
54164.0,STARLINK-5278,PAYLOAD,2024-06-26 14:47:06,15.08845801,0.0001359,53.2175,272.4355,105.6699,254.4443,0.00010267,1.347e-05,0.0,0 STARLINK-5278,1 54164U 22141H   24178.61604925  .00001347  00000-0  10267-3 0  9999,2 54164  53.2175 272.4355 0001359 105.6699 254.4443 15.08845801 92093,6917.863,95.437,540.668,538.788,0.0
54164.0,STARLINK-5278,PAYLOAD,2024-06-27 13:02:32,15.08825691,0.0001128,53.2176,268.2735,86.7451,273.367,-2.5253e-05,-6.89e-06,0.0,0 STARLINK-5278,1 54164U 22141H   24179.54343099 -.00000689  00000-0 -25253-4 0  9996,2 54164  53.2176 268.2735 0001128  86.7451 273.3670 15.08825691 92231,6917.924,95.438,540.569,539.009,0.0
54164.0,STARLINK-5278,PAYLOAD,2024-06-27 14:37:55,15.08824964,0.0001139,53.2178,267.9769,89.177,270.9353,-3.04e-05,-7.71e-06,0.0,0 STARLINK-5278,1 54164U 22141H   24179.60967216 -.00000771  00000-0 -30400-4 0  9998,2 54164  53.2178 267.9769 0001139  89.1770 270.9353 15.08824964 92243,6917.926,95.439,540.579,539.003,0.0
54164.0,STARLINK-5278,PAYLOAD,2024-06-28 12:53:17,15.08858531,0.0001236,53.2167,263.8148,97.9848,262.1284,0.00019813,2.868e-05,0.0,0 STARLINK-5278,1 54164U 22141H   24180.53700939  .00002868  00000-0  19813-3 0  9990,2 54164  53.2167 263.8148 0001236  97.9848 262.1284 15.08858531 92386,6917.824,95.436,540.544,538.834,0.0
54164.0,STARLINK-5278,PAYLOAD,2024-06-28 22:25:36,15.08856716,9.94e-05,53.2158,262.0309,79.9869,280.1235,9.8304e-05,1.278e-05,0.0,0 STARLINK-5278,1 54164U 22141H   24180.93444901  .00001278  00000-0  98304-4 0  9995,2 54164  53.2158 262.0309 0000994  79.9869 280.1235 15.08856716 92445,6917.829,95.436,540.382,539.007,0.0
54164.0,STARLINK-5278,PAYLOAD,2024-06-29 12:44:06,15.08837119,0.0001424,53.2161,259.3545,71.786,288.3287,0.00019408,2.802e-05,0.0,0 STARLINK-5278,1 54164U 22141H   24181.53062616  .00002802  00000-0  19408-3 0  9992,2 54164  53.2161 259.3545 0001424  71.7860 288.3287 15.08837119 92533,6917.889,95.438,540.739,538.769,0.0
54164.0,STARLINK-5278,PAYLOAD,2024-06-29 14:19:28,15.08842606,0.0001419,53.2165,259.0573,71.4274,288.6872,0.00026205,3.885e-05,0.0,0 STARLINK-5278,1 54164U 22141H   24181.59686335  .00003885  00000-0  26205-3 0  9993,2 54164  53.2165 259.0573 0001419  71.4274 288.6872 15.08842606 92546,6917.872,95.437,540.719,538.756,0.0
54164.0,STARLINK-5278,PAYLOAD,2024-06-30 12:34:53,15.08837881,0.0001281,53.215,254.8953,81.0416,279.0721,-0.00013933,-2.504e-05,0.0,0 STARLINK-5278,1 54164U 22141H   24182.52422750 -.00002504  00000-0 -13933-3 0  9999,2 54164  53.2150 254.8953 0001281  81.0416 279.0721 15.08837881 92688,6917.887,95.438,540.638,538.866,0.0
54164.0,STARLINK-5278,PAYLOAD,2024-06-30 22:07:12,15.08842283,0.0001394,53.2152,253.1122,80.4853,279.6296,3.3773e-05,2.5e-06,0.0,0 STARLINK-5278,1 54164U 22141H   24182.92166701  .00000250  00000-0  33773-4 0  9993,2 54164  53.2152 253.1122 0001394  80.4853 279.6296 15.08842283 92745,6917.873,95.437,540.703,538.774,0.0
54164.0,STARLINK-5278,PAYLOAD,2024-07-01 04:28:44,15.08839071,0.0001296,53.2151,251.9225,72.4631,287.6502,0.00018361,2.635e-05,0.0,0 STARLINK-5278,1 54164U 22141H   24183.18662830  .00002635  00000-0  18361-3 0  9990,2 54164  53.2151 251.9225 0001296  72.4631 287.6502 15.08839071 92784,6917.883,95.438,540.645,538.852,0.0
54164.0,STARLINK-5278,PAYLOAD,2024-07-01 14:01:02,15.08852674,0.0001299,53.2151,250.1379,78.2885,281.8252,0.00025028,3.699e-05,0.0,0 STARLINK-5278,1 54164U 22141H   24183.58406189  .00003699  00000-0  25028-3 0  9996,2 54164  53.2151 250.1379 0001299  78.2885 281.8252 15.08852674 92842,6917.842,95.437,540.605,538.808,0.0
54164.0,STARLINK-5278,PAYLOAD,2024-07-01 21:57:59,15.08841375,0.0001613,53.2158,248.6446,98.8349,261.2826,0.00016122,2.279e-05,0.0,0 STARLINK-5278,1 54164U 22141H   24183.91526728  .00002279  00000-0  16122-3 0  9993,2 54164  53.2158 248.6446 0001613  98.8349 261.2826 15.08841375 92899,6917.876,95.437,540.857,538.625,0.0
54164.0,STARLINK-5278,PAYLOAD,2024-07-02 04:19:31,15.08840564,0.0001661,53.2145,247.4618,79.8376,280.2804,0.00025271,3.736e-05,0.0,0 STARLINK-5278,1 54164U 22141H   24184.18023027  .00003736  00000-0  25271-3 0  9991,2 54164  53.2145 247.4618 0001661  79.8376 280.2804 15.08840564 92936,6917.879,95.438,540.893,538.595,0.0
54164.0,STARLINK-5278,PAYLOAD,2024-07-02 13:51:50,15.08846322,0.0001439,53.2152,245.6764,88.518,271.5977,0.00022342,3.27e-05,0.0,0 STARLINK-5278,1 54164U 22141H   24184.57766704  .00003270  00000-0  22342-3 0  9999,2 54164  53.2152 245.6764 0001439  88.5180 271.5977 15.08846322 92997,6917.861,95.437,540.722,538.731,0.0
54164.0,STARLINK-5278,PAYLOAD,2024-07-03 10:31:51,15.08843793,0.0001526,53.2142,241.8098,92.3852,267.7315,0.00012092,1.637e-05,0.0,0 STARLINK-5278,1 54164U 22141H   24185.43878735  .00001637  00000-0  12092-3 0  9999,2 54164  53.2142 241.8098 0001526  92.3852 267.7315 15.08843793 93128,6917.869,95.437,540.789,538.678,0.0
54164.0,STARLINK-5278,PAYLOAD,2024-07-04 04:01:05,15.08837928,0.0001461,53.2151,238.5385,94.7055,265.4104,7.3767e-05,8.86e-06,0.0,0 STARLINK-5278,1 54164U 22141H   24186.16743026  .00000886  00000-0  73767-4 0  9996,2 54164  53.2151 238.5385 0001461  94.7055 265.4104 15.08837928 93235,6917.887,95.438,540.762,538.741,0.0
54164.0,STARLINK-5278,PAYLOAD,2024-07-04 10:22:38,15.08838087,0.0001371,53.2155,237.3502,93.2247,266.8902,6.0014e-05,6.67e-06,0.0,0 STARLINK-5278,1 54164U 22141H   24186.43239047  .00000667  00000-0  60014-4 0  9997,2 54164  53.2155 237.3502 0001371  93.2247 266.8902 15.08838087 93276,6917.886,95.438,540.7,538.803,0.0
54164.0,STARLINK-5278,PAYLOAD,2024-07-04 19:54:57,15.0884011,0.000136,53.2153,235.5658,92.3896,267.7252,8.6846e-05,1.095e-05,0.0,0 STARLINK-5278,1 54164U 22141H   24186.82982958  .00001095  00000-0  86846-4 0  9993,2 54164  53.2153 235.5658 0001360  92.3896 267.7252 15.08840110 93339,6917.88,95.438,540.686,538.804,0.0
54164.0,STARLINK-5278,PAYLOAD,2024-07-05 10:13:25,15.08842079,0.0001387,53.2166,232.8901,95.5713,264.5437,9.1965e-05,1.176e-05,0.0,0 STARLINK-5278,1 54164U 22141H   24187.42598850  .00001176  00000-0  91965-4 0  9992,2 54164  53.2166 232.8901 0001387  95.5713 264.5437 15.08842079 93422,6917.874,95.437,540.699,538.78,0.0
54164.0,STARLINK-5278,PAYLOAD,2024-07-05 19:45:44,15.08837721,0.0001383,53.2163,231.1057,94.5144,265.6006,6.0856e-05,6.81e-06,0.0,0 STARLINK-5278,1 54164U 22141H   24187.82343256  .00000681  00000-0  60856-4 0  9999,2 54164  53.2163 231.1057 0001383  94.5144 265.6006 15.08837721 93484,6917.887,95.438,540.709,538.796,0.0
54164.0,STARLINK-5278,PAYLOAD,2024-07-06 02:07:17,15.08833368,0.0001422,53.2171,229.917,95.9788,264.1366,5.2248e-05,5.44e-06,0.0,0 STARLINK-5278,1 54164U 22141H   24188.08839642  .00000544  00000-0  52248-4 0  9991,2 54164  53.2171 229.9170 0001422  95.9788 264.1366 15.08833368 93528,6917.901,95.438,540.749,538.782,0.0
54164.0,STARLINK-5278,PAYLOAD,2024-07-06 11:39:36,15.08834495,0.0001423,53.2168,228.1328,95.7796,264.3359,4.4469e-05,4.2e-06,0.0,0 STARLINK-5278,1 54164U 22141H   24188.48583624  .00000420  00000-0  44469-4 0  9990,2 54164  53.2168 228.1328 0001423  95.7796 264.3359 15.08834495 93580,6917.897,95.438,540.747,538.778,0.0
54164.0,STARLINK-5278,PAYLOAD,2024-07-06 19:36:31,15.08836593,0.0001416,53.2168,226.6459,94.78,265.3354,4.7695e-05,4.71e-06,0.0,0 STARLINK-5278,1 54164U 22141H   24188.81703581  .00000471  00000-0  47695-4 0  9993,2 54164  53.2168 226.6459 0001416  94.7800 265.3354 15.08836593 93638,6917.891,95.438,540.735,538.776,0.0
54164.0,STARLINK-5278,PAYLOAD,2024-07-07 09:54:59,15.08840651,0.0001431,53.2166,223.9696,93.734,266.3816,4.7741e-05,4.72e-06,0.0,0 STARLINK-5278,1 54164U 22141H   24189.41319372  .00000472  00000-0  47741-4 0  9994,2 54164  53.2166 223.9696 0001431  93.7340 266.3816 15.08840651 93728,6917.878,95.438,540.733,538.753,0.0
54164.0,STARLINK-5278,PAYLOAD,2024-07-08 11:21:10,15.08840848,0.0001343,53.2156,219.2104,90.8491,269.2655,9.1443e-05,1.168e-05,0.0,0 STARLINK-5278,1 54164U 22141H   24190.47303365  .00001168  00000-0  91443-4 0  9998,2 54164  53.2156 219.2104 0001343  90.8491 269.2655 15.08840848 93884,6917.878,95.438,540.672,538.814,0.0
54164.0,STARLINK-5278,PAYLOAD,2024-07-08 19:18:05,15.08841094,0.0001337,53.2155,217.7235,90.3553,269.7592,7.2208e-05,8.61e-06,0.0,0 STARLINK-5278,1 54164U 22141H   24190.80423404  .00000861  00000-0  72208-4 0  9999,2 54164  53.2155 217.7235 0001337  90.3553 269.7592 15.08841094 93933,6917.877,95.437,540.667,538.817,0.0
54164.0,STARLINK-5278,PAYLOAD,2024-07-09 08:01:10,15.0884177,0.0001369,53.2155,215.3445,91.626,268.4889,6.3874e-05,7.29e-06,0.0,0 STARLINK-5278,1 54164U 22141H   24191.33415330  .00000729  00000-0  63874-4 0  9999,2 54164  53.2155 215.3445 0001369  91.6260 268.4889 15.08841770 94010,6917.875,95.437,540.687,538.793,0.0
54164.0,STARLINK-5278,PAYLOAD,2024-07-10 04:41:11,15.0883931,0.0001358,53.2153,211.4785,92.8606,267.2541,2.5775e-05,1.22e-06,0.0,0 STARLINK-5278,1 54164U 22141H   24192.19527572  .00000122  00000-0  25775-4 0  9991,2 54164  53.2153 211.4785 0001358  92.8606 267.2541 15.08839310 94140,6917.882,95.438,540.687,538.808,0.0
54164.0,STARLINK-5278,PAYLOAD,2024-07-10 07:51:58,15.08839711,0.0001368,53.2153,210.8833,94.8124,265.3025,2.7869e-05,1.56e-06,0.0,0 STARLINK-5278,1 54164U 22141H   24192.32775515  .00000156  00000-0  27869-4 0  9991,2 54164  53.2153 210.8833 0001368  94.8124 265.3025 15.08839711 94168,6917.881,95.438,540.693,538.8,0.0
